,name,address,longitude,latitude
0,The Clubhouse Bistro,"1221 Chess Dr, Foster City, CA 94404, United States",-122.2769085,37.5622822
1,Grape & Grain,"227 S San Mateo Dr, San Mateo, CA 94401, United States",-122.3243753,37.5648376
2,Vinyl Room,"221 Park Rd, Burlingame, CA 94010, United States",-122.3461701,37.5775
3,Small Fry Dance Club,"1528 S El Camino Real #208, San Mateo, CA 94402, United States",-122.3158576,37.553332
4,Sky Lounge,"76 E 3rd Ave, San Mateo, CA 94401, United States",-122.3245351,37.5638714
5,Downtown Tiki Lounge,"144 S B St, San Mateo, CA 94401, United States",-122.3236946,37.5664932
6,B Street Station,"236 S B St, San Mateo, CA 94401, United States",-122.3229764,37.5658343
7,O'Neills Irish Pub,"34 S B St, San Mateo, CA 94401, United States",-122.3243616,37.5671561
8,The Swingin' Door,"106 E 25th Ave, San Mateo, CA 94403, United States",-122.3045991,37.545086
9,Attic,"234 S B St, San Mateo, CA 94401, United States",-122.3230205,37.5659027
10,Club Caliente,"1776 Broadway, Redwood City, CA 94063, United States",-122.2229391,37.4870427
11,Motion Arts Center,"217 S Claremont St, San Mateo, CA 94401, United States",-122.320882,37.56715
12,South Bay Fusion,"560 El Camino Real, Redwood City, CA 94063, United States",-122.2390581,37.4893996
13,Bucky's Cocktail Lounge,"101 South Blvd, San Mateo, CA 94402, United States",-122.3129576,37.5538764
14,Club Shoreview,"596 S Norfolk St, San Mateo, CA 94401, United States",-122.3099127,37.5708389
15,Porterhouse,"60 E 3rd Ave, San Mateo, CA 94401, United States",-122.3247931,37.5637114
16,Antone's Cocktail Lounge,"32 37th Ave, San Mateo, CA 94403, United States",-122.295215,37.534305
17,Roberto Lee Shipping,"63 Bovet Rd #507, San Mateo, CA 94402, United States",-122.3139879,37.55031
18,Caribbean Gardens,"1302 Old Bayshore Hwy, Burlingame, CA 94010, United States",-122.3627357,37.5937835
19,Barrelhouse,"305 California Dr, Burlingame, CA 94010, United States",-122.345927,37.5798493
20,Peninsula Italian American Social Club,"100 N B St, San Mateo, CA 94401, United States",-122.3257731,37.5689475
21,Bel Mateo Bowl,"4330 Olympic Ave, San Mateo, CA 94403, United States",-122.290619,37.52826
22,Yuppie Bar,"709 S B St, San Mateo, CA 94401, United States",-122.3190651,37.5626061
23,840 Wine Bar & Cocktail Lounge,"840 Brewster Ave, Redwood City, CA 94063, United States",-122.2343484,37.4888448
24,The Field Club,"742 Polhemus Rd, San Mateo, CA 94402, United States",-122.3388959,37.5202238
25,Nick Foster Entertainment,"1324 Rollins Rd, Burlingame, CA 94010, United States",-122.3651314,37.5903496
26,The Rail Sports Bar & Lounge,"612 El Camino Real, San Carlos, CA 94070, United States",-122.2600832,37.5068838
27,San Mateo,"385 1st Ave, San Mateo, CA 94401, United States",-122.3237263,37.56782219999999
28,Club Fox,"2209 Broadway, Redwood City, CA 94063, United States",-122.2294332,37.4863522
29,Myriad Music School & Dance Academy,"2250 Palm Ave, San Mateo, CA 94403, United States",-122.3063573,37.5460056
30,Flights 101 Club Lounge,"1800 Old Bayshore Hwy, Burlingame, CA 94010, United States",-122.3706105,37.6025048
31,The Great Entertainer,"2028 S El Camino Real, San Mateo, CA 94403, United States",-122.3094511,37.547694
32,Savanna Jazz,"1189 Laurel St, San Carlos, CA 94070, United States",-122.2521516,37.4991264
33,Mc Govern's Bar,"215 E 4th Ave, San Mateo, CA 94401, United States",-122.3220992,37.5645241
34,Adriana Belly Dance,"1880 S Grant St, San Mateo, CA 94402, United States",-122.3028646,37.5535285
35,Coyote Point Yacht Club,"1820 Coyote Point Dr, San Mateo, CA 94401, United States",-122.316287,37.5863796
36,Fusion Peruvian Grill,"45 N B St, San Mateo, CA 94401, United States",-122.3257472,37.5684706
37,The Lariat Tavern,"1428 El Camino Real # A, Belmont, CA 94002, United States",-122.2722226,37.5169765
38,Kava Bar,"630 San Mateo Ave, San Bruno, CA 94066, United States",-122.4110495,37.6270769
0,Ora Nightclub,"2330 1st Ave, Seattle, WA 98121, United States",-122.347515,47.6141112
1,Trinity,"107 Occidental Ave S, Seattle, WA 98104, United States",-122.3332959,47.6015129
2,Q Nightclub,"1426 Broadway, Seattle, WA 98122, United States",-122.3203489,47.61376629999999
3,STAGE SEATTLE,"172 S Washington St, Seattle, WA 98104, United States",-122.3318485,47.6011073
4,Kremwerk,"1809 Minor Ave #10, Seattle, WA 98101, United States",-122.331098,47.616985
5,Neighbours Nightclub and Lounge,"1509 Broadway, Seattle, WA 98122, United States",-122.3211896,47.6144018
6,The Baltic Room,"1207 Pine St, Seattle, WA 98101, United States",-122.3283058,47.6148987
7,Re-bar,"1114 Howell St, Seattle, WA 98101, United States",-122.3310782,47.6166695
8,amber,"2214 1st Ave, Seattle, WA 98121, United States",-122.3457033,47.6130548
9,The Underground,"122 S Washington St, Seattle, WA 98104, United States",-122.3333208,47.6010565
10,The Mercury @ MachineWerks,"1009 E Union St, Seattle, WA 98122, United States",-122.3189114,47.6127055
11,Club Contour,"807 1st Ave, Seattle, WA 98104, United States",-122.3353421,47.6033866
12,The Cuff Complex,"1533 13th Ave, Seattle, WA 98122, United States",-122.3158456,47.6150949
13,Aston Manor,"2946 1st Ave S, Seattle, WA 98134, United States",-122.3336934,47.5762095
14,Capitol Lounge,"916 E Pike St, Seattle, WA 98122, United States",-122.3199575,47.6142162
15,LO-FI Performance Gallery,"429 Eastlake Ave E, Seattle, WA 98109, United States",-122.3295306,47.6229245
16,The Cherry Spot,"2021 E James St, Seattle, WA 98122, United States",-122.3053661,47.6071197
17,Vue Lounge,"2326 2nd Ave, Seattle, WA 98121, United States",-122.3463662,47.6148214
18,Club Sur,"2901 1st Ave S, Seattle, WA 98134, United States",-122.334701,47.5775356
19,Monkey Loft,"2915 1st Ave S, Seattle, WA 98134, United States",-122.3346493,47.5771852
20,Sur Artino,"2901 1st Ave S, Seattle, WA 98134, United States",-122.334701,47.5775355
21,Grim's Provisions & Spirits,"1512 11th Ave, Seattle, WA 98122, United States",-122.3177891,47.6145947
22,Box House,"124 S Washington St, Seattle, WA 98104, United States",-122.3331875,47.6010305
23,Havana,"1010 E Pike St, Seattle, WA 98122, United States",-122.3190951,47.6143841
24,Red Lounge,"1212 E Jefferson St, Seattle, WA 98122, United States",-122.3159727,47.6064502
25,Chop Suey,"1325 E Madison St, Seattle, WA 98122, United States",-122.3144219,47.613694
26,Cedar Room,"4912 Leary Ave NW, Seattle, WA 98107, United States",-122.3792863,47.6645716
27,Xtadium,"315 2nd Ave S, Seattle, WA 98104, United States",-122.3319202,47.5995625
28,R Place,"619 E Pine St, Seattle, WA 98122, United States",-122.3236564,47.6150683
29,Dimaloft,"1551 Minor Ave, Seattle, WA 98101, United States",-122.3286736,47.6144828
30,The Triple Door,"216 Union St, Seattle, WA 98101, United States",-122.3374196,47.608704
31,Black Lodge,"427 Eastlake Ave E, Seattle, WA 98109, United States",-122.3292533,47.6228269
32,Sarajevo | Restaurant & Lounge,"2332 1st Ave, Seattle, WA 98121, United States",-122.3475051,47.614201
33,Can Can,"94 Pike St, Seattle, WA 98101, United States",-122.340432,47.60887289999999
34,Sugar Hill,"414 E Pine St, Seattle, WA 98122, United States",-122.3260567,47.6153778
35,Haus of Braxton,"Seattle, WA 98122, United States",-122.3260828,47.6170783
36,Alibi Room,"85 Pike St, Seattle, WA 98101, United States",-122.3403579,47.6082846
37,ELK House,"1716 E Fir St, Seattle, WA 98122, United States",-122.3093487,47.6028169
38,Eden Seattle,"1950 1st Ave S, Seattle, WA 98134, United States",-122.3339691,47.5845187
39,PennyRoyal,"2000 2nd Ave #100, Seattle, WA 98121, United States",-122.3417701,47.6119061
40,Dimitriou's Jazz Alley,"2033 6th Ave, Seattle, WA 98121, United States",-122.3395575,47.6148694
41,Funhouse,"109 Eastlake Ave E, Seattle, WA 98109, United States",-122.3293811,47.6186326
42,Suite 410,"410 Stewart St, Seattle, WA 98101, United States",-122.3385835,47.6126422
43,Lava Lounge,"2226 2nd Ave, Seattle, WA 98121, United States",-122.3450322,47.6139792
44,The Forge Lounge,"65 Marion St, Seattle, WA 98104, United States",-122.3370842,47.6032644
45,Joseph Boy toy,"85 Pike St, Seattle, WA 98101, United States",-122.3405616,47.6084268
46,Jelly Bar,"1901 2nd Ave, Seattle, WA 98101, United States",-122.3408395,47.6108408
47,Pony,"1221 E Madison St, Seattle, WA 98122, United States",-122.3157683,47.6130773
48,Cantina de San Patricio,"1914 Post Alley, Seattle, WA 98101, United States",-122.342222,47.61038
49,Rock Box,"1603 Nagle Pl, Seattle, WA 98122, United States",-122.320146,47.6153829
50,Sea Monster Lounge,"2202 N 45th St, Seattle, WA 98103, United States",-122.3323427,47.6615064
51,Rob Roy,"2332 2nd Ave, Seattle, WA 98121, United States",-122.3465852,47.61476160000001
52,Sonya's Seattle,"1919 1st Ave, Seattle, WA 98101, United States",-122.3420452,47.6105853
53,The crocodile,"65 Lenora St, Seattle, WA 98121, United States",-122.3449709,47.610933
54,Skratch Lounge,"111 Yesler Way, Seattle, WA 98104, United States",-122.3333123,47.6010132
55,Skylark Cafe & Club,"3803 Delridge Way SW, Seattle, WA 98106, United States",-122.3625085,47.5699785
56,The Timbre Room,"1809 Minor Ave, Seattle, WA 98101, United States",-122.3309823,47.6169667
57,SPIN Seattle,"1511 6th Ave, Seattle, WA 98101, United States",-122.3352019,47.611747
58,Barboza,"925 E Pike St, Seattle, WA 98122, United States",-122.319664,47.61381100000001
59,The Rendezvous,"2322 2nd Ave, Seattle, WA 98121, United States",-122.3462172,47.614737
0,Desiree Club,"2800 Pennsylvania Ave NW, Washington, DC 20007, United States",-77.0577956,38.90447169999999
1,DC9 Nightclub,"1940 9th St NW, Washington, DC 20001, United States",-77.024142,38.916708
2,Heist Night Club,"1802 Jefferson Pl NW, Washington, DC 20036, United States",-77.042107,38.906361
3,Ultrabar,"911 F St NW, Washington, DC 20004, United States",-77.02471899999999,38.89749700000001
4,Flash,"645 Florida Ave NW, Washington, DC 20001, United States",-77.02136899999999,38.916281
5,Soundcheck,"1420 K St NW, Washington, DC 20005, United States",-77.032635,38.902192
6,Club Timehri,"2439 18th St NW, Washington, DC 20009, United States",-77.041978,38.921564
7,Decades DC,"1219 Connecticut Ave NW, Washington, DC 20036, United States",-77.0413176,38.9064855
8,L8 Lounge,"727 15th St NW, Washington, DC 20005, United States",-77.0332352,38.8995726
9,Cafe Citron,"1343 Connecticut Ave NW, Washington, DC 20036, United States",-77.04246289999999,38.9083841
10,Kabin Lounge,"1337 Connecticut Ave NW, Washington, DC 20036, United States",-77.04232089999999,38.9082115
11,Eden Lounge DC,"1716 I St NW, Washington, DC 20006, United States",-77.0405274,38.9010931
12,The Park at 14th,"920 14th St NW, Washington, DC 20005, United States",-77.03227500000001,38.901922
13,Bliss Nightclub,"2122 24th Pl NE, Washington, DC 20018, United States",-76.9716718,38.9198884
14,Opera Ultra Lounge,"1400 I St NW, Washington, DC 20005, United States",-77.0323777,38.90118140000001
15,Living Room DC,"1008 Vermont Ave NW, Washington, DC 20005, United States",-77.0337636,38.9030798
16,Panorama Productions,"1424 K St NW #102, Washington, DC 20005, United States",-77.0329387,38.9021435
17,Eighteenth Street Lounge,"1212 18th St NW, Washington, DC 20036, United States",-77.0419716,38.9062117
18,U Street Music Hall,"1115A U St NW, Washington, DC 20009, United States",-77.0276204,38.9171386
19,Bravo Bravo,"1001 Connecticut Ave NW, Washington, DC 20036, United States",-77.0392273,38.90297870000001
20,Black Cat,"1811 14th St NW, Washington, DC 20009, United States",-77.0317283,38.9145825
21,Power Nightclub,"2335 Bladensburg Rd NE, Washington, DC 20018, United States",-76.96892199999999,38.92141609999999
22,Daedalus,"1010 Vermont Ave NW, Washington, DC 20005, United States",-77.03389450000002,38.9030476
23,C&C,"2422 17th St NW, Washington, DC 20009, United States",-77.037802,38.921792
24,Saint Yves,"1220 Connecticut Ave NW, Washington, DC 20036, United States",-77.0419719,38.9066356
25,Rosebar Lounge,"1215 Connecticut Ave NW, Washington, DC 20036, United States",-77.0410983,38.9063975
26,The House,"3530 Georgia Ave NW, Washington, DC 20010, United States",-77.0241466,38.9339531
27,Club Heaven & Hell,"2327 18th St NW, Washington, DC 20009, United States",-77.041664,38.920428
28,Aqua,"1818 New York Ave NE, Washington, DC 20002, United States",-76.9767674,38.9177091
29,L2 Lounge & Events Venue,"3315 Cady's Alley NW, Washington, DC 20007, United States",-77.0666389,38.9047955
30,Zeba Bar,"3423 14th St NW, Washington, DC 20010, United States",-77.0324325,38.9322279
31,stadiumclub,"2127 Queens Chapel Rd NE, Washington, DC 20018, United States",-76.9722378,38.9196507
32,Abigail,"1730 M St NW Suite 100, Washington, DC 20036, United States",-77.0398051,38.9053391
33,The Velvet Lounge,"915 U St NW, Washington, DC 20001, United States",-77.02470459999999,38.9171963
34,New Vegas Lounge,"1415 P St NW, Washington, DC 20005, United States",-77.0326027,38.909787
35,Royal Palace,"1805 Connecticut Ave NW, Washington, DC 20009, United States",-77.0458123,38.9144006
36,Amsterdam Lounge,"1208 U St NW, Washington, DC 20009, United States",-77.0284523,38.9167755
37,Intense Nightlife,"1223 Connecticut Ave NW, Washington, DC 20036, United States",-77.0412669,38.9066873
38,Ozio Rooftop,"1813 M St NW, Washington, DC 20036, United States",-77.0423689,38.9059083
39,Cities Restaurant & Lounge,"1909 K St NW, Washington, DC 20006, United States",-77.044283,38.902816
40,Tropicalia Lounge,"2001 14th St NW, Washington, DC 20009, United States",-77.0315809,38.91714450000001
41,MK Lounge DC,"1930 9th St NW, Washington, DC 20001, United States",-77.0241456,38.9164399
42,Congressional Club,"2001 New Hampshire Ave NW, Washington, DC 20009, United States",-77.035915,38.917216
43,Manor,"1327 Connecticut Ave NW, Washington, DC 20036, United States",-77.0421096,38.908044
44,Casa Blanca - La Concha,"1307 Euclid St NW, Washington, DC 20009, United States",-77.03020599999999,38.923784
45,Dirty Bar,"1223 Connecticut Ave NW 3rd Floor, Washington, DC 20036, United States",-77.0414165,38.9066346
46,Josephine,"1008 Vermont Ave NW, Washington, DC 20005, United States",-77.0337636,38.9030798
47,Las Chicas Locas DC 2nd Floor,"701 7th St NW, Washington, DC 20001, United States",-77.0203753,38.8990504
48,Blues Alley Club,"1073 Wisconsin Ave NW, Washington, DC 20007, United States",-77.0626542,38.9046817
49,Red Lounge Bar & Grill,"2013 14th St NW, Washington, DC 20009, United States",-77.031759,38.917481
50,CLUB ELEVATE,"15 K St NE, Washington, DC 20002, United States",-77.0078388,38.9022272
51,Perkins&Eastman,"Thomas Cir NW, Washington, DC 20005, United States",-77.0317474,38.90594189999999
52,Dodge City,"917 U St NW, Washington, DC 20001, United States",-77.024757,38.9172218
53,Vivid Lounge,"1334 U St NW #4445, Washington, DC 20009, United States",-77.03093299999999,38.916822
54,Ziegfeld's/Secrets,"1824 Half St SW, Washington, DC 20024, United States",-77.0103822,38.867479
55,Barcode,"1101 17th St NW, Washington, DC 20036, United States",-77.0380103,38.9039407
56,The Camelot Showbar Strip Club,"1823 M St NW, Washington, DC 20036, United States",-77.04273690000001,38.9057946
57,Glow Lounge DC,"1608 7th St NW, Washington, DC 20001, United States",-77.0222208,38.9114932
58,Bossa Bistro & Lounge,"2463 18th St NW, Washington, DC 20009, United States",-77.0422541,38.9220719
59,Champion Kitchen,"7730 Georgia Ave NW, Washington, DC 20012, United States",-77.0268423,38.9834142
